[{"OBJECT_NAME":"STARLINK-4407","OBJECT_ID":"2022-084H","EPOCH":"2026-03-14T22:00:01.999584","MEAN_MOTION":15.96232476,"ECCENTRICITY":0.00032318,"INCLINATION":97.6118,"RA_OF_ASC_NODE":161.0389,"ARG_OF_PERICENTER":313.165,"MEAN_ANOMALY":7.9213,"EPHEMERIS_TYPE":0,"CLASSIFICATION_TYPE":"U","NORAD_CAT_ID":53196,"ELEMENT_SET_NO":999,"REV_AT_EPOCH":604,"BSTAR":0.0013572024,"MEAN_MOTION_DOT":0.00557203,"MEAN_MOTION_DDOT":0.00013173714},{"OBJECT_NAME":"STARLINK-4057","OBJECT_ID":"2022-086AD","EPOCH":"2026-03-14T22:00:01.999584","MEAN_MOTION":16.00115068,"ECCENTRICITY":0.00020672,"INCLINATION":53.2155,"RA_OF_ASC_NODE":147.094,"ARG_OF_PERICENTER":3.5516,"MEAN_ANOMALY":242.5524,"EPHEMERIS_TYPE":0,"CLASSIFICATION_TYPE":"U","NORAD_CAT_ID":53269,"ELEMENT_SET_NO":999,"REV_AT_EPOCH":592,"BSTAR":0.0023330473,"MEAN_MOTION_DOT":0.01217997,"MEAN_MOTION_DDOT":0.00078080205},{"OBJECT_NAME":"STARLINK-4361","OBJECT_ID":"2022-099AE","EPOCH":"2026-03-14T22:00:01.999584","MEAN_MOTION":15.96568503,"ECCENTRICITY":0.00017664,"INCLINATION":97.6442,"RA_OF_ASC_NODE":214.4926,"ARG_OF_PERICENTER":129.7648,"MEAN_ANOMALY":183.0052,"EPHEMERIS_TYPE":0,"CLASSIFICATION_TYPE":"U","NORAD_CAT_ID":53493,"ELEMENT_SET_NO":999,"REV_AT_EPOCH":594,"BSTAR":0.0014895672,"MEAN_MOTION_DOT":0.00622302,"MEAN_MOTION_DDOT":0.00016691865},{"OBJECT_NAME":"STARLINK-4465","OBJECT_ID":"2022-099AH","EPOCH":"2026-03-14T22:00:01.999584","MEAN_MOTION":15.91211936,"ECCENTRICITY":0.00016212,"INCLINATION":97.6372,"RA_OF_ASC_NODE":221.2871,"ARG_OF_PERICENTER":36.2662,"MEAN_ANOMALY":196.8281,"EPHEMERIS_TYPE":0,"CLASSIFICATION_TYPE":"U","NORAD_CAT_ID":53496,"ELEMENT_SET_NO":999,"REV_AT_EPOCH":605,"BSTAR":0.00079693057,"MEAN_MOTION_DOT":0.00251266,"MEAN_MOTION_DDOT":2.5558695e-5},{"OBJECT_NAME":"STARLINK-4461","OBJECT_ID":"2022-099AQ","EPOCH":"2026-03-14T22:00:01.999584","MEAN_MOTION":15.95658606,"ECCENTRICITY":7.024e-5,"INCLINATION":97.6316,"RA_OF_ASC_NODE":221.9542,"ARG_OF_PERICENTER":90.5733,"MEAN_ANOMALY":102.9637,"EPHEMERIS_TYPE":0,"CLASSIFICATION_TYPE":"U","NORAD_CAT_ID":53503,"ELEMENT_SET_NO":999,"REV_AT_EPOCH":584,"BSTAR":0.0015603256,"MEAN_MOTION_DOT":0.00620575,"MEAN_MOTION_DDOT":0.00016382391},{"OBJECT_NAME":"STARLINK-4469","OBJECT_ID":"2022-105K","EPOCH":"2026-03-14T22:00:01.999584","MEAN_MOTION":15.92840512,"ECCENTRICITY":0.00023883,"INCLINATION":97.6257,"RA_OF_ASC_NODE":340.2321,"ARG_OF_PERICENTER":123.8813,"MEAN_ANOMALY":31.7934,"EPHEMERIS_TYPE":0,"CLASSIFICATION_TYPE":"U","NORAD_CAT_ID":53657,"ELEMENT_SET_NO":999,"REV_AT_EPOCH":599,"BSTAR":0.0016442395,"MEAN_MOTION_DOT":0.00563923,"MEAN_MOTION_DDOT":0.00012904771},{"OBJECT_NAME":"STARLINK-5092","OBJECT_ID":"2023-014T","EPOCH":"2026-03-15T01:47:46.351392","MEAN_MOTION":16.08996866,"ECCENTRICITY":0.0002657,"INCLINATION":69.995,"RA_OF_ASC_NODE":35.8142,"ARG_OF_PERICENTER":266.2318,"MEAN_ANOMALY":93.8594,"EPHEMERIS_TYPE":0,"CLASSIFICATION_TYPE":"U","NORAD_CAT_ID":55408,"ELEMENT_SET_NO":999,"REV_AT_EPOCH":17323,"BSTAR":0.0010119,"MEAN_MOTION_DOT":0.00886183,"MEAN_MOTION_DDOT":0.00044268},{"OBJECT_NAME":"STARLINK-6201","OBJECT_ID":"2023-064AQ","EPOCH":"2026-03-14T14:59:56.137056","MEAN_MOTION":16.14780529,"ECCENTRICITY":0.000432,"INCLINATION":69.9883,"RA_OF_ASC_NODE":98.3663,"ARG_OF_PERICENTER":277.0437,"MEAN_ANOMALY":83.029,"EPHEMERIS_TYPE":0,"CLASSIFICATION_TYPE":"U","NORAD_CAT_ID":56486,"ELEMENT_SET_NO":999,"REV_AT_EPOCH":15680,"BSTAR":0.0007505379,"MEAN_MOTION_DOT":0.00966882,"MEAN_MOTION_DDOT":0.00060824297},{"OBJECT_NAME":"OBJECT H","OBJECT_ID":"2023-085H","EPOCH":"2026-03-14T22:23:31.445376","MEAN_MOTION":16.09386927,"ECCENTRICITY":0.00071852,"INCLINATION":97.4567,"RA_OF_ASC_NODE":201.2273,"ARG_OF_PERICENTER":280.4376,"MEAN_ANOMALY":79.6097,"EPHEMERIS_TYPE":0,"CLASSIFICATION_TYPE":"U","NORAD_CAT_ID":57011,"ELEMENT_SET_NO":999,"REV_AT_EPOCH":15341,"BSTAR":0.0019343239,"MEAN_MOTION_DOT":0.01671385,"MEAN_MOTION_DDOT":0.0020881165},{"OBJECT_NAME":"OBJECT AF","OBJECT_ID":"2023-085AF","EPOCH":"2026-03-14T21:48:54.671904","MEAN_MOTION":15.9752961,"ECCENTRICITY":0.00117764,"INCLINATION":97.4724,"RA_OF_ASC_NODE":205.0451,"ARG_OF_PERICENTER":291.7668,"MEAN_ANOMALY":68.2355,"EPHEMERIS_TYPE":0,"CLASSIFICATION_TYPE":"U","NORAD_CAT_ID":57033,"ELEMENT_SET_NO":999,"REV_AT_EPOCH":15361,"BSTAR":0.0017011116,"MEAN_MOTION_DOT":0.00753536,"MEAN_MOTION_DDOT":0.0002546086},{"OBJECT_NAME":"SHIYAN-25 (SY-25)","OBJECT_ID":"2023-087A","EPOCH":"2026-03-14T02:13:16.435776","MEAN_MOTION":16.00964239,"ECCENTRICITY":0.00130537,"INCLINATION":96.7274,"RA_OF_ASC_NODE":134.2345,"ARG_OF_PERICENTER":252.4808,"MEAN_ANOMALY":107.5046,"EPHEMERIS_TYPE":0,"CLASSIFICATION_TYPE":"U","NORAD_CAT_ID":57047,"ELEMENT_SET_NO":999,"REV_AT_EPOCH":15959,"BSTAR":-4.0927208e-5,"MEAN_MOTION_DOT":-0.00022753,"MEAN_MOTION_DDOT":2.147632e-6},{"OBJECT_NAME":"QIANKUN-1","OBJECT_ID":"2023-103B","EPOCH":"2026-03-14T04:27:43.279776","MEAN_MOTION":16.07731813,"ECCENTRICITY":0.00442447,"INCLINATION":96.1906,"RA_OF_ASC_NODE":124.4262,"ARG_OF_PERICENTER":163.3561,"MEAN_ANOMALY":196.9189,"EPHEMERIS_TYPE":0,"CLASSIFICATION_TYPE":"U","NORAD_CAT_ID":57422,"ELEMENT_SET_NO":999,"REV_AT_EPOCH":15203,"BSTAR":0.00022697036,"MEAN_MOTION_DOT":0.00209116,"MEAN_MOTION_DDOT":2.1595679e-5},{"OBJECT_NAME":"OBJECT B","OBJECT_ID":"2023-104B","EPOCH":"2026-03-14T22:14:52.647072","MEAN_MOTION":16.01713576,"ECCENTRICITY":0.00066938,"INCLINATION":97.2688,"RA_OF_ASC_NODE":163.1868,"ARG_OF_PERICENTER":296.0771,"MEAN_ANOMALY":63.9819,"EPHEMERIS_TYPE":0,"CLASSIFICATION_TYPE":"U","NORAD_CAT_ID":57425,"ELEMENT_SET_NO":999,"REV_AT_EPOCH":14891,"BSTAR":0.00095387874,"MEAN_MOTION_DOT":0.00533077,"MEAN_MOTION_DDOT":0.00012975983},{"OBJECT_NAME":"STARLINK-30504","OBJECT_ID":"2023-151S","EPOCH":"2026-03-14T17:13:17.824224","MEAN_MOTION":16.05173443,"ECCENTRICITY":0.0021472,"INCLINATION":42.9742,"RA_OF_ASC_NODE":173.9229,"ARG_OF_PERICENTER":16.8252,"MEAN_ANOMALY":343.3336,"EPHEMERIS_TYPE":0,"CLASSIFICATION_TYPE":"U","NORAD_CAT_ID":57980,"ELEMENT_SET_NO":999,"REV_AT_EPOCH":13809,"BSTAR":0.0014635,"MEAN_MOTION_DOT":0.01083454,"MEAN_MOTION_DDOT":0.00064216},{"OBJECT_NAME":"STARLINK-30559","OBJECT_ID":"2023-156M","EPOCH":"2026-03-14T14:48:26.868096","MEAN_MOTION":16.04471024,"ECCENTRICITY":0.00147385,"INCLINATION":53.1326,"RA_OF_ASC_NODE":133.7072,"ARG_OF_PERICENTER":358.5692,"MEAN_ANOMALY":1.5296,"EPHEMERIS_TYPE":0,"CLASSIFICATION_TYPE":"U","NORAD_CAT_ID":58039,"ELEMENT_SET_NO":999,"REV_AT_EPOCH":13594,"BSTAR":0.0014203567,"MEAN_MOTION_DOT":0.00975881,"MEAN_MOTION_DDOT":0.00050966443},{"OBJECT_NAME":"STARLINK-30513","OBJECT_ID":"2023-158W","EPOCH":"2026-03-15T00:30:13.509216","MEAN_MOTION":16.04051307,"ECCENTRICITY":0.0025418,"INCLINATION":42.9763,"RA_OF_ASC_NODE":47.913,"ARG_OF_PERICENTER":152.1585,"MEAN_ANOMALY":208.066,"EPHEMERIS_TYPE":0,"CLASSIFICATION_TYPE":"U","NORAD_CAT_ID":58071,"ELEMENT_SET_NO":999,"REV_AT_EPOCH":13797,"BSTAR":0.00021261,"MEAN_MOTION_DOT":0.00147814,"MEAN_MOTION_DDOT":1.7978e-5}]
