STARLINK-4407           
1 53196U 22084H   26073.91668981  .00557203  13174-3  13572-2 0  9997
2 53196  97.6118 161.0389 0003231 313.1650   7.9213 15.96232476  6041
STARLINK-4057           
1 53269U 22086AD  26073.91668981  .01217997  78080-3  23330-2 0  9994
2 53269  53.2155 147.0940 0002067   3.5516 242.5524 16.00115068  5926
STARLINK-4361           
1 53493U 22099AE  26073.91668981  .00622302  16692-3  14896-2 0  9994
2 53493  97.6442 214.4926 0001766 129.7648 183.0052 15.96568503  5948
STARLINK-4465           
1 53496U 22099AH  26073.91668981  .00251266  25559-4  79693-3 0  9994
2 53496  97.6372 221.2871 0001621  36.2662 196.8281 15.91211936  6055
STARLINK-4461           
1 53503U 22099AQ  26073.91668981  .00620575  16382-3  15603-2 0  9999
2 53503  97.6316 221.9542 0000702  90.5733 102.9637 15.95658606  5847
STARLINK-4469           
1 53657U 22105K   26073.91668981  .00563923  12905-3  16442-2 0  9999
2 53657  97.6257 340.2321 0002388 123.8813  31.7934 15.92840512  5993
STARLINK-5092           
1 55408U 23014T   26074.07484203  .00886183  44268-3  10119-2 0  9994
2 55408  69.9950  35.8142 0002657 266.2318  93.8594 16.08996866173236
STARLINK-6201           
1 56486U 23064AQ  26073.62495529  .00966882  60824-3  75054-3 0  9990
2 56486  69.9883  98.3663 0004320 277.0437  83.0290 16.14780529156803
OBJECT H                
1 57011U 23085H   26073.93300284  .01671385  20881-2  19343-2 0  9993
2 57011  97.4567 201.2273 0007185 280.4376  79.6097 16.09386927153415
OBJECT AF               
1 57033U 23085AF  26073.90896611  .00753536  25461-3  17011-2 0  9996
2 57033  97.4724 205.0451 0011776 291.7668  68.2355 15.97529610153611
SHIYAN-25 (SY-25)       
1 57047U 23087A   26073.09255134 -.00022753  21476-5 -40927-4 0  9992
2 57047  96.7274 134.2345 0013053 252.4808 107.5046 16.00964239159595
QIANKUN-1               
1 57422U 23103B   26073.18591759  .00209116  21596-4  22697-3 0  9997
2 57422  96.1906 124.4262 0044244 163.3561 196.9189 16.07731813152038
OBJECT B                
1 57425U 23104B   26073.92699823  .00533077  12976-3  95388-3 0  9998
2 57425  97.2688 163.1868 0006693 296.0771  63.9819 16.01713576148910
STARLINK-30504          
1 57980U 23151S   26073.71756741  .01083454  64216-3  14635-2 0  9995
2 57980  42.9742 173.9229 0021472  16.8252 343.3336 16.05173443138092
STARLINK-30559          
1 58039U 23156M   26073.61697764  .00975881  50966-3  14204-2 0  9996
2 58039  53.1326 133.7072 0014738 358.5692   1.5296 16.04471024135945
STARLINK-30513          
1 58071U 23158W   26074.02098969  .00147814  17978-4  21261-3 0  9998
2 58071  42.9763  47.9130 0025418 152.1585 208.0660 16.04051307137971
